[{"OBJECT_NAME":"STARLINK-34218","OBJECT_ID":"2025-124X","EPOCH":"2026-03-09T10:29:34.412640","MEAN_MOTION":15.27573221,"ECCENTRICITY":0.00014736,"INCLINATION":42.9984,"RA_OF_ASC_NODE":119.518,"ARG_OF_PERICENTER":257.4162,"MEAN_ANOMALY":102.6525,"EPHEMERIS_TYPE":0,"CLASSIFICATION_TYPE":"U","NORAD_CAT_ID":64338,"ELEMENT_SET_NO":999,"REV_AT_EPOCH":4178,"BSTAR":0.00082716922,"MEAN_MOTION_DOT":0.00022565,"MEAN_MOTION_DDOT":0},{"OBJECT_NAME":"CZ-6A R\/B","OBJECT_ID":"2023-168B","EPOCH":"2026-03-09T21:13:08.722272","MEAN_MOTION":15.16100791,"ECCENTRICITY":0.00607667,"INCLINATION":97.7542,"RA_OF_ASC_NODE":104.7688,"ARG_OF_PERICENTER":339.2379,"MEAN_ANOMALY":20.6386,"EPHEMERIS_TYPE":0,"CLASSIFICATION_TYPE":"U","NORAD_CAT_ID":58200,"ELEMENT_SET_NO":999,"REV_AT_EPOCH":12979,"BSTAR":0.00029693841,"MEAN_MOTION_DOT":5.919e-5,"MEAN_MOTION_DDOT":0}]
